[{"OBJECT_NAME":"STARLINK-6050","OBJECT_ID":"2023-064L","EPOCH":"2026-03-09T22:00:01.999584","MEAN_MOTION":14.98336516,"ECCENTRICITY":0.00036738,"INCLINATION":70.0009,"RA_OF_ASC_NODE":143.955,"ARG_OF_PERICENTER":268.0116,"MEAN_ANOMALY":260.892,"EPHEMERIS_TYPE":0,"CLASSIFICATION_TYPE":"U","NORAD_CAT_ID":56458,"ELEMENT_SET_NO":999,"REV_AT_EPOCH":575,"BSTAR":-0.0017137333,"MEAN_MOTION_DOT":-0.00020486,"MEAN_MOTION_DDOT":0},{"OBJECT_NAME":"CZ-6A DEB","OBJECT_ID":"2024-140RH","EPOCH":"2026-03-09T12:32:13.567200","MEAN_MOTION":15.23024459,"ECCENTRICITY":0.01073082,"INCLINATION":88.6757,"RA_OF_ASC_NODE":253.1302,"ARG_OF_PERICENTER":74.0491,"MEAN_ANOMALY":287.2547,"EPHEMERIS_TYPE":0,"CLASSIFICATION_TYPE":"U","NORAD_CAT_ID":61163,"ELEMENT_SET_NO":999,"REV_AT_EPOCH":8457,"BSTAR":0.0019108924,"MEAN_MOTION_DOT":0.00053105,"MEAN_MOTION_DDOT":0}]
